ONEWEB-0388             
1 49314U 21090AM  26188.27184326  .00000091  00000+0  19618-3 0  9998
2 49314  87.9187 300.9695 0001835  97.4483 262.6858 13.19726008229060
2021-091B               
1 49316U 21091B   26188.55241464  .00002021  00000+0  10067-3 0  9993
2 49316  97.4480  15.8181 0012595 337.0508  23.0161 15.18656922262074
2021-091D               
1 49318U 21091D   26188.49276028  .00000005  00000+0  24859-4 0  9997
2 49318  97.4484 217.5186 0010050 274.0559  85.9462 14.00142845250922
SHIJIAN-21 (SJ-21)      
1 49330U 21094A   26187.59326126 -.00000337  00000+0  00000+0 0  9995
2 49330   5.1559  61.0612 0050087 168.1668  36.5840  1.00261189  5557
SES-17                  
1 49332U 21095A   26188.18699484 -.00000257  00000+0  00000+0 0  9995
2 49332   0.0214  43.2783 0001281  90.4716 151.6318  1.00271019 18056
SYRACUSE 4A             
1 49333U 21095B   26188.43911676  .00000000  00000+0  00000+0 0  9999
2 49333   0.0227  36.3258 0001337  64.8621  27.8151  1.00270699 18156
QZS-1R (MICHIBIKI-1R)   
1 49336U 21096A   26186.60108073 -.00000258  00000+0  00000+0 0  9995
2 49336  37.4964  79.3119 0755511 272.0883 281.1819  1.00249302 17193
JILIN-1 GAOFEN 2F       
1 49338U 21097A   26188.54115007  .00002842  00000+0  18862-3 0  9997
2 49338  97.6724 314.6947 0019420 154.0069 206.2138 15.07912271259383
YAOGAN-32 02A           
1 49383U 21099A   26188.53447662  .00000597  00000+0  12262-3 0  9996
2 49383  98.2496 322.3719 0002208 121.8756 238.2661 14.64240778249349
YAOGAN-32 02B           
1 49384U 21099B   26188.53437199  .00000585  00000+0  12026-3 0  9996
2 49384  98.2491 322.3802 0001496 116.6383 243.4973 14.64237857249342
SDGSAT 1                
1 49387U 21100A   26188.51776316  .00002892  00000+0  14034-3 0  9991
2 49387  97.2621 234.6904 0008960 189.8227 170.2834 15.19216535259007
YAOGAN-35 01A           
1 49390U 21101A   26188.30754527  .00004319  00000+0  16084-3 0  9996
2 49390  34.9876 148.6418 0006632 209.8486 150.1852 15.26867459259955
YAOGAN-35 01C           
1 49393U 21101D   26188.26848251  .00006713  00000+0  27599-3 0  9995
2 49393  35.0043 138.5554 0006626 213.2993 146.7306 15.23460733260071
TEIKYOSAT-4 (OORURI)    
1 49396U 21102B   26188.13941579  .00001329  00000+0  86469-4 0  9992
2 49396  97.3664 216.8471 0010939 217.3603 142.6866 15.09581551255736
RAISE 2                 
1 49397U 21102C   26187.65141509  .00005348  00000+0  23884-3 0  9990
2 49397  97.3247 220.1534 0007946 204.1061 155.9805 15.21743272256395
Z-SAT                   
1 49399U 21102E   26188.49633567  .00004021  00000+0  19793-3 0  9996
2 49399  97.3319 223.2031 0016859 170.5384 189.6172 15.18426632256520
HIBARI                  
1 49400U 21102F   26187.66724211  .00009449  00000+0  30604-3 0  9997
2 49400  97.3226 233.3519 0013126 127.6462 232.5973 15.32149897257177
DRUMS                   
1 49401U 21102G   26188.47462031  .00003397  00000+0  15721-3 0  9996
2 49401  97.3285 225.0118 0015983 155.7981 204.4009 15.20681819256660
KOSEN-1                 
1 49402U 21102H   26188.06319664  .00006147  00000+0  23304-3 0  9997
2 49402  97.3175 229.8359 0015082 133.3577 226.8921 15.27132913257059
STARLINK-3075           
1 49409U 21104B   26188.50003471  .00828266  00000+0  27361-1 0  9990
2 49409  53.1623  49.9852 0001452  95.2448 158.6419 15.28277696  5089
STARLINK-3147           
1 49410U 21104C   26188.50003471  .00055220  00000+0  19132-2 0  9992
2 49410  53.1601  49.8540 0001096 107.6830 253.5970 15.29331681  5237
STARLINK-3162           
1 49411U 21104D   26188.47489492 -.00013561  00000+0 -83461-3 0  9991
2 49411  53.1614  41.1697 0001085  77.3966 282.7147 15.08879638256853
STARLINK-3157           
1 49413U 21104F   26188.50003471  .00070939  00000+0  38039-2 0  9996
2 49413  53.1612  40.9912 0003596 101.5691  88.6297 15.14340219  5388
STARLINK-3146           
1 49414U 21104G   26188.50003471  .00080203  00000+0  41152-2 0  9992
2 49414  53.1600  50.8123 0000814 138.9146 108.7303 15.15840182  5331
STARLINK-3159           
1 49415U 21104H   26188.50003471  .00075435  00000+0  40429-2 0  9990
2 49415  53.1598  40.9804 0001967  78.1723 137.2192 15.14329992  5333
STARLINK-3133           
1 49416U 21104J   26188.50003471  .00072562  00000+0  39141-2 0  9998
2 49416  53.1590  51.0000 0002487  91.3239  99.2353 15.14120030  5332
STARLINK-3154           
1 49417U 21104K   26188.50003471  .00083765  00000+0  45148-2 0  9990
2 49417  53.1611  40.5825 0002439 108.1556 334.1472 15.14072961  5388
STARLINK-3111           
1 49418U 21104L   26188.50003471  .00076867  00000+0  42283-2 0  9993
2 49418  53.1591  50.9879 0002504  74.2720 141.9541 15.13391917  5384
STARLINK-3120           
1 49419U 21104M   26188.50003471  .00082222  00000+0  47403-2 0  9995
2 49419  53.1600  51.0316 0000767 108.8756 145.7661 15.11671319  5937
STARLINK-3110           
1 49420U 21104N   26188.50003471  .00126470  00000+0  47733-2 0  9997
2 49420  53.1584  50.2838 0001667 122.5649 118.2017 15.26081476  5388
STARLINK-3112           
1 49421U 21104P   26188.50003471  .00130583  00000+0  45192-2 0  9995
2 49421  53.1610  49.9613 0002123  74.8005  52.2553 15.28915104  5735
