OBJECT_NAME,OBJECT_ID,EPOCH,MEAN_MOTION,ECCENTRICITY,INCLINATION,RA_OF_ASC_NODE,ARG_OF_PERICENTER,MEAN_ANOMALY,EPHEMERIS_TYPE,CLASSIFICATION_TYPE,NORAD_CAT_ID,ELEMENT_SET_NO,REV_AT_EPOCH,BSTAR,MEAN_MOTION_DOT,MEAN_MOTION_DDOT
ONEWEB-0388,2021-090AM,2026-07-07T06:31:27.257664,13.19726008,.0001835,87.9187,300.9695,97.4483,262.6858,0,U,49314,999,22906,.19618E-3,.91E-6,0
2021-091B,2021-091B,2026-07-07T13:15:28.624896,15.18656922,.0012595,97.4480,15.8181,337.0508,23.0161,0,U,49316,999,26207,.10067E-3,.2021E-4,0
2021-091D,2021-091D,2026-07-07T11:49:34.488192,14.00142845,.001005,97.4484,217.5186,274.0559,85.9462,0,U,49318,999,25092,.24859E-4,.5E-7,0
SHIJIAN-21 (SJ-21),2021-094A,2026-07-06T14:14:17.772864,1.00261189,.00500875,5.1559,61.0612,168.1668,36.5840,0,U,49330,999,555,0,-.337E-5,0
SES-17,2021-095A,2026-07-07T04:29:16.354176,1.00271019,.0001281,0.0214,43.2783,90.4716,151.6318,0,U,49332,999,1805,0,-.257E-5,0
SYRACUSE 4A,2021-095B,2026-07-07T10:32:19.688064,1.00270699,.0001337,0.0227,36.3258,64.8621,27.8151,0,U,49333,999,1815,0,0,0
QZS-1R (MICHIBIKI-1R),2021-096A,2026-07-05T14:25:33.375072,1.00249302,.07555114,37.4964,79.3119,272.0883,281.1819,0,U,49336,999,1719,0,-.258E-5,0
JILIN-1 GAOFEN 2F,2021-097A,2026-07-07T12:59:15.366048,15.07912271,.001942,97.6724,314.6947,154.0069,206.2138,0,U,49338,999,25938,.18862E-3,.2842E-4,0
YAOGAN-32 02A,2021-099A,2026-07-07T12:49:38.779968,14.64240778,.0002208,98.2496,322.3719,121.8756,238.2661,0,U,49383,999,24934,.12262E-3,.597E-5,0
YAOGAN-32 02B,2021-099B,2026-07-07T12:49:29.739936,14.64237857,.0001496,98.2491,322.3802,116.6383,243.4973,0,U,49384,999,24934,.12026E-3,.585E-5,0
SDGSAT 1,2021-100A,2026-07-07T12:25:34.737024,15.19216535,.000896,97.2621,234.6904,189.8227,170.2834,0,U,49387,999,25900,.14034E-3,.2892E-4,0
YAOGAN-35 01A,2021-101A,2026-07-07T07:22:51.911328,15.26867459,.0006632,34.9876,148.6418,209.8486,150.1852,0,U,49390,999,25995,.16084E-3,.4319E-4,0
YAOGAN-35 01C,2021-101D,2026-07-07T06:26:36.888864,15.23460733,.0006626,35.0043,138.5554,213.2993,146.7306,0,U,49393,999,26007,.27599E-3,.6713E-4,0
TEIKYOSAT-4 (OORURI),2021-102B,2026-07-07T03:20:45.524256,15.09581551,.0010939,97.3664,216.8471,217.3603,142.6866,0,U,49396,999,25573,.86469E-4,.1329E-4,0
RAISE 2,2021-102C,2026-07-06T15:38:02.263776,15.21743272,.0007946,97.3247,220.1534,204.1061,155.9805,0,U,49397,999,25639,.23884E-3,.5348E-4,0
Z-SAT,2021-102E,2026-07-07T11:54:43.401888,15.18426632,.0016859,97.3319,223.2031,170.5384,189.6172,0,U,49399,999,25652,.19793E-3,.4021E-4,0
HIBARI,2021-102F,2026-07-06T16:00:49.718304,15.32149897,.0013126,97.3226,233.3519,127.6462,232.5973,0,U,49400,999,25717,.30604E-3,.9449E-4,0
DRUMS,2021-102G,2026-07-07T11:23:27.194784,15.20681819,.0015983,97.3285,225.0118,155.7981,204.4009,0,U,49401,999,25666,.15721E-3,.3397E-4,0
KOSEN-1,2021-102H,2026-07-07T01:31:00.189696,15.27132913,.0015082,97.3175,229.8359,133.3577,226.8921,0,U,49402,999,25705,.23304E-3,.6147E-4,0
STARLINK-3075,2021-104B,2026-07-07T12:00:02.998944,15.28277696,.0001452,53.1623,49.9852,95.2448,158.6419,0,U,49409,999,508,.27361E-1,.828266E-2,0
STARLINK-3147,2021-104C,2026-07-07T12:00:02.998944,15.29331681,.0001096,53.1601,49.8540,107.6830,253.5970,0,U,49410,999,523,.19132E-2,.5522E-3,0
STARLINK-3162,2021-104D,2026-07-07T11:23:50.921088,15.08879638,.0001085,53.1614,41.1697,77.3966,282.7147,0,U,49411,999,25685,-.83461E-3,-.13561E-3,0
STARLINK-3157,2021-104F,2026-07-07T12:00:02.998944,15.14340219,.0003596,53.1612,40.9912,101.5691,88.6297,0,U,49413,999,538,.38039E-2,.70939E-3,0
STARLINK-3146,2021-104G,2026-07-07T12:00:02.998944,15.15840182,.0000814,53.1600,50.8123,138.9146,108.7303,0,U,49414,999,533,.41152E-2,.80203E-3,0
STARLINK-3159,2021-104H,2026-07-07T12:00:02.998944,15.14329992,.0001967,53.1598,40.9804,78.1723,137.2192,0,U,49415,999,533,.40429E-2,.75435E-3,0
STARLINK-3133,2021-104J,2026-07-07T12:00:02.998944,15.14120030,.0002487,53.1590,51.0000,91.3239,99.2353,0,U,49416,999,533,.39141E-2,.72562E-3,0
STARLINK-3154,2021-104K,2026-07-07T12:00:02.998944,15.14072961,.0002439,53.1611,40.5825,108.1556,334.1472,0,U,49417,999,538,.45148E-2,.83765E-3,0
STARLINK-3111,2021-104L,2026-07-07T12:00:02.998944,15.13391917,.0002504,53.1591,50.9879,74.2720,141.9541,0,U,49418,999,538,.42283E-2,.76867E-3,0
STARLINK-3120,2021-104M,2026-07-07T12:00:02.998944,15.11671319,.0000767,53.1600,51.0316,108.8756,145.7661,0,U,49419,999,593,.47403E-2,.82222E-3,0
STARLINK-3110,2021-104N,2026-07-07T12:00:02.998944,15.26081476,.0001667,53.1584,50.2838,122.5649,118.2017,0,U,49420,999,538,.47733E-2,.12647E-2,0
STARLINK-3112,2021-104P,2026-07-07T12:00:02.998944,15.28915104,.0002123,53.1610,49.9613,74.8005,52.2553,0,U,49421,999,573,.45192E-2,.130583E-2,0
